[Satellite]
VERSION=1.1
NAME=HORYU 2
NICKNAME=HORYU 2
TLE1=1 38340U 12025D   17186.19558287  .00000178  00000-0  34336-4 0  9995
TLE2=2 38340  98.3761 190.7513 0010530 230.6580 129.3695 14.75349335265533
